{
"type": "FeatureCollection",
"name": "cargo ports",
"crs": { "type": "name", "properties": { "name": "urn:ogc:def:crs:OGC:1.3:CRS84" } },
"features": [
{ "type": "Feature", "properties": { "fid": 1, "idporto": 17197, "locode": "ITPEM", "nome": "Porto Empedocle", "importante": "No", "lat": 37.284391666700003, "lon": 13.5280138889 }, "geometry": { "type": "Point", "coordinates": [ 13.5280138889, 37.284391666700003 ] } },
{ "type": "Feature", "properties": { "fid": 2, "idporto": 16044, "locode": "ITPTO", "nome": "Porto Torres", "importante": "No", "lat": 40.840216666700002, "lon": 8.3997638889000008 }, "geometry": { "type": "Point", "coordinates": [ 8.399763888900001, 40.840216666700002 ] } },
{ "type": "Feature", "properties": { "fid": 3, "idporto": 15952, "locode": "ITPFE", "nome": "Portoferraio", "importante": "No", "lat": 42.8126583333, "lon": 10.3245333333 }, "geometry": { "type": "Point", "coordinates": [ 10.3245333333, 42.8126583333 ] } },
{ "type": "Feature", "properties": { "fid": 4, "idporto": 16170, "locode": "ITTPS", "nome": "Trapani", "importante": "importante", "lat": 38.01135, "lon": 12.5181277778 }, "geometry": { "type": "Point", "coordinates": [ 12.5181277778, 38.01135 ] } },
{ "type": "Feature", "properties": { "fid": 5, "idporto": 16086, "locode": "ITAUG", "nome": "Augusta", "importante": "No", "lat": 37.242797222199997, "lon": 15.2137111111 }, "geometry": { "type": "Point", "coordinates": [ 15.2137111111, 37.242797222199997 ] } },
{ "type": "Feature", "properties": { "fid": 6, "idporto": 16104, "locode": "ITBRI", "nome": "Bari", "importante": "importante", "lat": 41.134494444399998, "lon": 16.864066666700001 }, "geometry": { "type": "Point", "coordinates": [ 16.864066666700001, 41.134494444399998 ] } },
{ "type": "Feature", "properties": { "fid": 7, "idporto": 16166, "locode": "ITTMI", "nome": "Termoli", "importante": "No", "lat": 42.005038622481578, "lon": 15.002248254557019 }, "geometry": { "type": "Point", "coordinates": [ 15.002248254557019, 42.005038622481578 ] } },
{ "type": "Feature", "properties": { "fid": 8, "idporto": 16157, "locode": "ITCHI", "nome": "Chioggia", "importante": "importante", "lat": 45.213127777799997, "lon": 12.2693888889 }, "geometry": { "type": "Point", "coordinates": [ 12.2693888889, 45.213127777799997 ] } },
{ "type": "Feature", "properties": { "fid": 9, "idporto": 16224, "locode": "ITCVV", "nome": "Civitavecchia", "importante": "No", "lat": 42.094447222200003, "lon": 11.782377777800001 }, "geometry": { "type": "Point", "coordinates": [ 11.782377777800001, 42.094447222200003 ] } },
{ "type": "Feature", "properties": { "fid": 10, "idporto": 16156, "locode": "ITCGC", "nome": "Corigliano Calabro", "importante": "No", "lat": 39.663491666699997, "lon": 16.5249694444 }, "geometry": { "type": "Point", "coordinates": [ 16.5249694444, 39.663491666699997 ] } },
{ "type": "Feature", "properties": { "fid": 11, "idporto": 16940, "locode": "ITCRV", "nome": "Crotone", "importante": "No", "lat": 39.085897222200003, "lon": 17.1290083333 }, "geometry": { "type": "Point", "coordinates": [ 17.1290083333, 39.085897222200003 ] } },
{ "type": "Feature", "properties": { "fid": 12, "idporto": 16257, "locode": "ITFCO", "nome": "Fiumicino", "importante": "No", "lat": 41.770669444399999, "lon": 12.225669444399999 }, "geometry": { "type": "Point", "coordinates": [ 12.225669444399999, 41.770669444399999 ] } },
{ "type": "Feature", "properties": { "fid": 13, "idporto": 16254, "locode": "ITFAL", "nome": "Falconara", "importante": "No", "lat": 43.639686111099998, "lon": 13.387333333300001 }, "geometry": { "type": "Point", "coordinates": [ 13.387333333300001, 43.639686111099998 ] } },
{ "type": "Feature", "properties": { "fid": 14, "idporto": 16263, "locode": "ITGAE", "nome": "Gaeta", "importante": "No", "lat": 41.222911111099997, "lon": 13.572772222199999 }, "geometry": { "type": "Point", "coordinates": [ 13.572772222199999, 41.222911111099997 ] } },
{ "type": "Feature", "properties": { "fid": 15, "idporto": 16066, "locode": "ITAOI", "nome": "Ancona", "importante": "importante", "lat": 43.620633333299999, "lon": 13.502997222199999 }, "geometry": { "type": "Point", "coordinates": [ 13.502997222199999, 43.620633333299999 ] } },
{ "type": "Feature", "properties": { "fid": 16, "idporto": 16085, "locode": "ITATX", "nome": "Arbatax", "importante": "No", "lat": 39.933333333299998, "lon": 9.7 }, "geometry": { "type": "Point", "coordinates": [ 9.7, 39.933333333299998 ] } },
{ "type": "Feature", "properties": { "fid": 17, "idporto": 15956, "locode": "ITPIO", "nome": "Piombino", "importante": "No", "lat": 42.934213888899997, "lon": 10.5447027778 }, "geometry": { "type": "Point", "coordinates": [ 10.5447027778, 42.934213888899997 ] } },
{ "type": "Feature", "properties": { "fid": 18, "idporto": 16102, "locode": "ITBLT", "nome": "Barletta", "importante": "No", "lat": 41.325527777799998, "lon": 16.2904 }, "geometry": { "type": "Point", "coordinates": [ 16.2904, 41.325527777799998 ] } },
{ "type": "Feature", "properties": { "fid": 19, "idporto": 16092, "locode": "ITBDS", "nome": "Brindisi", "importante": "No", "lat": 40.650580555600001, "lon": 17.965680555599999 }, "geometry": { "type": "Point", "coordinates": [ 17.965680555599999, 40.650580555600001 ] } },
{ "type": "Feature", "properties": { "fid": 20, "idporto": 16141, "locode": "ITCAG", "nome": "Cagliari", "importante": "importante", "lat": 39.210602777799998, "lon": 9.112075 }, "geometry": { "type": "Point", "coordinates": [ 9.112075, 39.210602777799998 ] } },
{ "type": "Feature", "properties": { "fid": 21, "idporto": 16183, "locode": "ITCTA", "nome": "Catania", "importante": "importante", "lat": 37.496444444399998, "lon": 15.094158333299999 }, "geometry": { "type": "Point", "coordinates": [ 15.094158333299999, 37.496444444399998 ] } },
{ "type": "Feature", "properties": { "fid": 22, "idporto": 16225, "locode": "ITCVX", "nome": "Cavo", "importante": "No", "lat": 42.860241666699999, "lon": 10.4233305556 }, "geometry": { "type": "Point", "coordinates": [ 10.4233305556, 42.860241666699999 ] } },
{ "type": "Feature", "properties": { "fid": 23, "idporto": 16303, "locode": "ITGOA", "nome": "Genova", "importante": "importante", "lat": 44.409097222200003, "lon": 8.9179666667 }, "geometry": { "type": "Point", "coordinates": [ 8.9179666667, 44.409097222200003 ] } },
{ "type": "Feature", "properties": { "fid": 24, "idporto": 0, "locode": "IT000", "nome": "Genova Pra’", "importante": "importante", "lat": 44.421354977536453, "lon": 8.789275972542498 }, "geometry": { "type": "Point", "coordinates": [ 8.789275972542498, 44.421354977536453 ] } },
{ "type": "Feature", "properties": { "fid": 25, "idporto": 16301, "locode": "ITGIT", "nome": "Gioia Tauro", "importante": "importante", "lat": 38.446877777799997, "lon": 15.901875 }, "geometry": { "type": "Point", "coordinates": [ 15.901875, 38.446877777799997 ] } },
{ "type": "Feature", "properties": { "fid": 26, "idporto": 16264, "locode": "ITGAI", "nome": "Golfo Aranci", "importante": "No", "lat": 40.995075, "lon": 9.6226027777999992 }, "geometry": { "type": "Point", "coordinates": [ 9.622602777799999, 40.995075 ] } },
{ "type": "Feature", "properties": { "fid": 27, "idporto": 16341, "locode": "ITMDC", "nome": "Marina di Carrara", "importante": "importante", "lat": 44.033341666699997, "lon": 10.0402472222 }, "geometry": { "type": "Point", "coordinates": [ 10.0402472222, 44.033341666699997 ] } },
{ "type": "Feature", "properties": { "fid": 28, "idporto": 16145, "locode": "ITSPE", "nome": "La Spezia", "importante": "importante", "lat": 44.104536111100003, "lon": 9.843625 }, "geometry": { "type": "Point", "coordinates": [ 9.843625, 44.104536111100003 ] } },
{ "type": "Feature", "properties": { "fid": 29, "idporto": 16333, "locode": "ITLIV", "nome": "Livorno", "importante": "importante", "lat": 43.56095, "lon": 10.301413888900001 }, "geometry": { "type": "Point", "coordinates": [ 10.301413888900001, 43.56095 ] } },
{ "type": "Feature", "properties": { "fid": 30, "idporto": 16343, "locode": "ITMFR", "nome": "Manfredonia", "importante": "No", "lat": 41.625033333300003, "lon": 15.9178138889 }, "geometry": { "type": "Point", "coordinates": [ 15.9178138889, 41.625033333300003 ] } },
{ "type": "Feature", "properties": { "fid": 31, "idporto": 15961, "locode": "ITPMO", "nome": "Palermo", "importante": "importante", "lat": 38.128566666700003, "lon": 13.3672722222 }, "geometry": { "type": "Point", "coordinates": [ 13.3672722222, 38.128566666700003 ] } },
{ "type": "Feature", "properties": { "fid": 32, "idporto": 15920, "locode": "ITMSN", "nome": "Messina-Tremestieri", "importante": "importante", "lat": 38.189202777799999, "lon": 15.5609138889 }, "geometry": { "type": "Point", "coordinates": [ 15.5609138889, 38.189202777799999 ] } },
{ "type": "Feature", "properties": { "fid": 33, "idporto": 16349, "locode": "ITMLZ", "nome": "Milazzo", "importante": "No", "lat": 38.216472222199997, "lon": 15.2428833333 }, "geometry": { "type": "Point", "coordinates": [ 15.2428833333, 38.216472222199997 ] } },
{ "type": "Feature", "properties": { "fid": 34, "idporto": 16352, "locode": "ITMNF", "nome": "Monfalcone", "importante": "importante", "lat": 45.788976, "lon": 13.536257 }, "geometry": { "type": "Point", "coordinates": [ 13.536257, 45.788976 ] } },
{ "type": "Feature", "properties": { "fid": 35, "idporto": 16353, "locode": "ITMNP", "nome": "Monopoli", "importante": "No", "lat": 40.955422222199999, "lon": 17.303030555599999 }, "geometry": { "type": "Point", "coordinates": [ 17.303030555599999, 40.955422222199999 ] } },
{ "type": "Feature", "properties": { "fid": 36, "idporto": 15922, "locode": "ITNAP", "nome": "Napoli", "importante": "importante", "lat": 40.839772222199997, "lon": 14.2762805556 }, "geometry": { "type": "Point", "coordinates": [ 14.2762805556, 40.839772222199997 ] } },
{ "type": "Feature", "properties": { "fid": 37, "idporto": 15938, "locode": "ITOLB", "nome": "Olbia", "importante": "No", "lat": 40.923586111100001, "lon": 9.5192972222000005 }, "geometry": { "type": "Point", "coordinates": [ 9.519297222200001, 40.923586111100001 ] } },
{ "type": "Feature", "properties": { "fid": 38, "idporto": 16047, "locode": "ITQOS", "nome": "Oristano", "importante": "No", "lat": 39.862583333300002, "lon": 8.5519055555999994 }, "geometry": { "type": "Point", "coordinates": [ 8.551905555599999, 39.862583333300002 ] } },
{ "type": "Feature", "properties": { "fid": 39, "idporto": 15941, "locode": "ITOTN", "nome": "Ortona", "importante": "No", "lat": 42.351358333299999, "lon": 14.411925 }, "geometry": { "type": "Point", "coordinates": [ 14.411925, 42.351358333299999 ] } },
{ "type": "Feature", "properties": { "fid": 40, "idporto": 16045, "locode": "ITPVE", "nome": "Portoscuso-Portovesme", "importante": "No", "lat": 39.197477777800003, "lon": 8.3899333333000001 }, "geometry": { "type": "Point", "coordinates": [ 8.3899333333, 39.197477777800003 ] } },
{ "type": "Feature", "properties": { "fid": 41, "idporto": 16071, "locode": "ITRAN", "nome": "Ravenna", "importante": "importante", "lat": 44.456686111099998, "lon": 12.2486361111 }, "geometry": { "type": "Point", "coordinates": [ 12.2486361111, 44.456686111099998 ] } },
{ "type": "Feature", "properties": { "fid": 42, "idporto": 16075, "locode": "ITREG", "nome": "Reggio Calabria", "importante": "No", "lat": 38.122841666699998, "lon": 15.650183333299999 }, "geometry": { "type": "Point", "coordinates": [ 15.650183333299999, 38.122841666699998 ] } },
{ "type": "Feature", "properties": { "fid": 43, "idporto": 16856, "locode": "ITRMA", "nome": "Rio Marina", "importante": "No", "lat": 42.815344444399997, "lon": 10.4297638889 }, "geometry": { "type": "Point", "coordinates": [ 10.4297638889, 42.815344444399997 ] } },
{ "type": "Feature", "properties": { "fid": 44, "idporto": 16098, "locode": "ITSAL", "nome": "Salerno", "importante": "No", "lat": 40.6740666667, "lon": 14.7464611111 }, "geometry": { "type": "Point", "coordinates": [ 14.7464611111, 40.6740666667 ] } },
{ "type": "Feature", "properties": { "fid": 45, "idporto": 16149, "locode": "ITSTE", "nome": "Santa Teresa di Gallura", "importante": "No", "lat": 41.236927777799998, "lon": 9.1944944444000001 }, "geometry": { "type": "Point", "coordinates": [ 9.1944944444, 41.236927777799998 ] } },
{ "type": "Feature", "properties": { "fid": 46, "idporto": 15953, "locode": "ITPFX", "nome": "Sarroch", "importante": "No", "lat": 39.0895166667, "lon": 9.027575 }, "geometry": { "type": "Point", "coordinates": [ 9.027575, 39.0895166667 ] } },
{ "type": "Feature", "properties": { "fid": 47, "idporto": 16152, "locode": "ITSVN", "nome": "Savona", "importante": "importante", "lat": 44.310152777799999, "lon": 8.4904638889000008 }, "geometry": { "type": "Point", "coordinates": [ 8.490463888900001, 44.310152777799999 ] } },
{ "type": "Feature", "properties": { "fid": 48, "idporto": 16227, "locode": "ITVSG", "nome": "Villa San Giovanni", "importante": "No", "lat": 38.2181388889, "lon": 15.633294444400001 }, "geometry": { "type": "Point", "coordinates": [ 15.633294444400001, 38.2181388889 ] } },
{ "type": "Feature", "properties": { "fid": 49, "idporto": 16161, "locode": "ITTAR", "nome": "Taranto", "importante": "importante", "lat": 40.475883333299997, "lon": 17.213419444399999 }, "geometry": { "type": "Point", "coordinates": [ 17.213419444399999, 40.475883333299997 ] } },
{ "type": "Feature", "properties": { "fid": 50, "idporto": 16173, "locode": "ITTRI", "nome": "Termini Imerese", "importante": "No", "lat": 37.985972222199997, "lon": 13.704952777800001 }, "geometry": { "type": "Point", "coordinates": [ 13.704952777800001, 37.985972222199997 ] } },
{ "type": "Feature", "properties": { "fid": 51, "idporto": 16175, "locode": "ITTRS", "nome": "Trieste", "importante": "importante", "lat": 45.633830555599999, "lon": 13.761755555600001 }, "geometry": { "type": "Point", "coordinates": [ 13.761755555600001, 45.633830555599999 ] } },
{ "type": "Feature", "properties": { "fid": 52, "idporto": 16941, "locode": "ITVDL", "nome": "Vado Ligure", "importante": "importante", "lat": 44.265636111100001, "lon": 8.4453611111000004 }, "geometry": { "type": "Point", "coordinates": [ 8.4453611111, 44.265636111100001 ] } },
{ "type": "Feature", "properties": { "fid": 53, "idporto": 16228, "locode": "ITVSO", "nome": "Vasto", "importante": "No", "lat": 42.172238249170981, "lon": 14.713683112804166 }, "geometry": { "type": "Point", "coordinates": [ 14.713683112804166, 42.172238249170981 ] } },
{ "type": "Feature", "properties": { "fid": 54, "idporto": 16189, "locode": "ITVCE", "nome": "Venezia", "importante": "importante", "lat": 45.437211111099998, "lon": 12.310708333299999 }, "geometry": { "type": "Point", "coordinates": [ 12.310708333299999, 45.437211111099998 ] } },
{ "type": "Feature", "properties": { "fid": 55, "idporto": 16231, "locode": "ITVVA", "nome": "Vibo Marina", "importante": "No", "lat": 38.716672222200003, "lon": 16.126775 }, "geometry": { "type": "Point", "coordinates": [ 16.126775, 38.716672222200003 ] } }
]
}
