{
"type": "FeatureCollection",
"name": "cargo airports",
"crs": { "type": "name", "properties": { "name": "urn:ogc:def:crs:OGC:1.3:CRS84" } },
"features": [
{ "type": "Feature", "properties": { "fid": 1, "Aeroporto": "ALGHERO FERTILIA", "Nome Commerciale": "\"Aeroporto Internazionale \"\"Riviera del Corallo\"\"\"", "Comune": "ALGHERO", "Indirizzo": "Regione Nuraghe Biancu, 07041 Alghero (SS)", "Codice IATA": "AHO", "Codice ICAO": "LIEA", "Tipo Utilizzo": "CIVILE E MILITARE", "Interesse Nazionale": "SI", "TEN T CORE Network/COMPREHENSIVE Network": "COMPREHENSIVE", "Certificato": "SI", "Gestore": "SO.GE.A.AL S.P.A.", "N. Certificato": "I-013/APT", "Scadenza": "2017-01-24", "Direzione/Ufficio operazioni ENAC": "CENTRO", "Note certificato": "", "Sito web": "http://www.aeroportodialghero.it/", "LAT": 40.633294, "LON": 8.289652 }, "geometry": { "type": "Point", "coordinates": [ 8.289652, 40.633294 ] } },
{ "type": "Feature", "properties": { "fid": 2, "Aeroporto": "ANCONA FALCONARA", "Nome Commerciale": "\"Aeroporto delle Marche \"\"Raffaello Sanzio\"\"\"", "Comune": "FALCONARA MARITTIMA", "Indirizzo": "Piazzale Sandro Sordoni, 60015 Falconara Marittima (AN)", "Codice IATA": "AOI", "Codice ICAO": "LIPY", "Tipo Utilizzo": "CIVILE", "Interesse Nazionale": "SI", "TEN T CORE Network/COMPREHENSIVE Network": "COMPREHENSIVE", "Certificato": "SI", "Gestore": "AERDORICA S.P.A.", "N. Certificato": "I-022/APT", "Scadenza": "2017-05-30", "Direzione/Ufficio operazioni ENAC": "CENTRO", "Note certificato": "", "Sito web": "http://aeroportomarche.regione.marche.it/", "LAT": 43.615278, "LON": 13.3625 }, "geometry": { "type": "Point", "coordinates": [ 13.3625, 43.615278 ] } },
{ "type": "Feature", "properties": { "fid": 3, "Aeroporto": "BARI", "Nome Commerciale": "\"Aeroporto di Bari \"\"Karol WojtyÅ‚a\"\"\"", "Comune": "BARI", "Indirizzo": "Viale Enzo Ferrari, 70128 (BA)", "Codice IATA": "BRI", "Codice ICAO": "LIBD", "Tipo Utilizzo": "CIVILE E MILITARE", "Interesse Nazionale": "STRATEGICO", "TEN T CORE Network/COMPREHENSIVE Network": "COMPREHENSIVE", "Certificato": "SI", "Gestore": "SOC. AEROPORTI DI PUGLIA", "N. Certificato": "I-009/APT", "Scadenza": "2016-11-26", "Direzione/Ufficio operazioni ENAC": "SUD", "Note certificato": "", "Sito web": "http://www.aeroportidipuglia.it/", "LAT": 41.138056, "LON": 16.765 }, "geometry": { "type": "Point", "coordinates": [ 16.765, 41.138056 ] } },
{ "type": "Feature", "properties": { "fid": 4, "Aeroporto": "BERGAMO ORIO AL SERIO", "Nome Commerciale": "\"Aeroporto Internazionale \"\"Il Caravaggio\"\"\"", "Comune": "ORIO AL SERIO", "Indirizzo": "Via Aeroporto, 13, 24050 Orio al Serio (BG)", "Codice IATA": "BGY", "Codice ICAO": "LIME", "Tipo Utilizzo": "CIVILE", "Interesse Nazionale": "SI", "TEN T CORE Network/COMPREHENSIVE Network": "CORE", "Certificato": "SI", "Gestore": "SACBO", "N. Certificato": "I-010/APT", "Scadenza": "2016-11-29", "Direzione/Ufficio operazioni ENAC": "NORD-OVEST", "Note certificato": "", "Sito web": "http://www.orioaeroporto.it/en/", "LAT": 45.668889, "LON": 9.700278 }, "geometry": { "type": "Point", "coordinates": [ 9.700278, 45.668889 ] } },
{ "type": "Feature", "properties": { "fid": 5, "Aeroporto": "BOLOGNA", "Nome Commerciale": "\"Aeroporto Internazionale \"\"Guglielmo Marconi\"\"\"", "Comune": "BOLOGNA", "Indirizzo": "Via del Triumvirato, 84, 40132 (BO)", "Codice IATA": "BLQ", "Codice ICAO": "LIPE", "Tipo Utilizzo": "CIVILE", "Interesse Nazionale": "STRATEGICO", "TEN T CORE Network/COMPREHENSIVE Network": "CORE", "Certificato": "SI", "Gestore": "AEROPORTO GUGLIELMO MARCONI DI BOLOGNA S.P.A.", "N. Certificato": "I-004/APT", "Scadenza": "2019-05-30", "Direzione/Ufficio operazioni ENAC": "NORD-EST", "Note certificato": "", "Sito web": "http://www.bologna-airport.it/", "LAT": 44.533333, "LON": 11.3 }, "geometry": { "type": "Point", "coordinates": [ 11.3, 44.533333 ] } },
{ "type": "Feature", "properties": { "fid": 6, "Aeroporto": "BRESCIA MONTICHIARI", "Nome Commerciale": "\"Aeroporto \"\"Gabriele D'Annunzio\"\"\"", "Comune": "MONTICHIARI", "Indirizzo": "Via Aeroporto, 34, 25018 Montichiari (BS)", "Codice IATA": "VBS", "Codice ICAO": "LIPO", "Tipo Utilizzo": "CIVILE", "Interesse Nazionale": "SI", "TEN T CORE Network/COMPREHENSIVE Network": "COMPREHENSIVE", "Certificato": "SI", "Gestore": "VALERIO CATULLO", "N. Certificato": "I-021/APT", "Scadenza": "2017-05-30", "Direzione/Ufficio operazioni ENAC": "NORD-OVEST", "Note certificato": "", "Sito web": "http://www.aeroportobrescia.it", "LAT": 45.425556, "LON": 10.326944 }, "geometry": { "type": "Point", "coordinates": [ 10.326944, 45.425556 ] } },
{ "type": "Feature", "properties": { "fid": 7, "Aeroporto": "BRINDISI", "Nome Commerciale": "\"Aeroporto \"\"Papola Casale\"\" di Brindisi\\nAeroporto del Salento\"", "Comune": "BRINDISI", "Indirizzo": "Contrada Baroncino, 72100 Brindisi (BR)", "Codice IATA": "BDS", "Codice ICAO": "LIBR", "Tipo Utilizzo": "CIVILE", "Interesse Nazionale": "SI", "TEN T CORE Network/COMPREHENSIVE Network": "COMPREHENSIVE", "Certificato": "SI", "Gestore": "SOC. AEROPORTI DI PUGLIA", "N. Certificato": "I-020/APT", "Scadenza": "2017-05-27", "Direzione/Ufficio operazioni ENAC": "SUD", "Note certificato": "", "Sito web": "http://www.aeroportodibrindisi.com/", "LAT": 40.658056, "LON": 17.946667 }, "geometry": { "type": "Point", "coordinates": [ 17.946667, 40.658056 ] } },
{ "type": "Feature", "properties": { "fid": 8, "Aeroporto": "CAGLIARI", "Nome Commerciale": "\"Aeroporto \"\"Mario Mameli\"\" di Cagliari\"", "Comune": "ELMAS", "Indirizzo": "Via dei Trasvolatori, 09030 Elmas (CA)", "Codice IATA": "CAG", "Codice ICAO": "LIEE", "Tipo Utilizzo": "CIVILE", "Interesse Nazionale": "STRATEGICO", "TEN T CORE Network/COMPREHENSIVE Network": "CORE", "Certificato": "SI", "Gestore": "SO.G.AER. S.P.A.", "N. Certificato": "I-014/APT", "Scadenza": "2017-01-24", "Direzione/Ufficio operazioni ENAC": "CENTRO", "Note certificato": "", "Sito web": "http://www.sogaer.it", "LAT": 39.25, "LON": 9.05 }, "geometry": { "type": "Point", "coordinates": [ 9.05, 39.25 ] } },
{ "type": "Feature", "properties": { "fid": 9, "Aeroporto": "CATANIA", "Nome Commerciale": "\"Aeroporto Internazionale \"\"Vincenzo Bellini\"\"\"", "Comune": "CATANIA", "Indirizzo": "Via Fontanarossa, 95121 Catania (CT)", "Codice IATA": "CTA", "Codice ICAO": "LICC", "Tipo Utilizzo": "CIVILE", "Interesse Nazionale": "STRATEGICO", "TEN T CORE Network/COMPREHENSIVE Network": "COMPREHENSIVE", "Certificato": "SI", "Gestore": "S.A.C.", "N. Certificato": "I-005/APT", "Scadenza": "2017-12-31", "Direzione/Ufficio operazioni ENAC": "SUD", "Note certificato": "", "Sito web": "http://www.aeroporto.catania.it/", "LAT": 37.466781, "LON": 15.0639 }, "geometry": { "type": "Point", "coordinates": [ 15.0639, 37.466781 ] } },
{ "type": "Feature", "properties": { "fid": 10, "Aeroporto": "FIRENZE", "Nome Commerciale": "\"Aeroporto di Firenze \"\"Amerigo Vespucci\"\"\"", "Comune": "FIRENZE", "Indirizzo": "Via del Termine, 11, 50127 Firenze", "Codice IATA": "FLR", "Codice ICAO": "LIRQ", "Tipo Utilizzo": "CIVILE", "Interesse Nazionale": "STRATEGICO", "TEN T CORE Network/COMPREHENSIVE Network": "COMPREHENSIVE", "Certificato": "SI", "Gestore": "TOSCANA AEROPORTI SPA", "N. Certificato": "I-012/APT", "Scadenza": "2017-01-31", "Direzione/Ufficio operazioni ENAC": "CENTRO", "Note certificato": "", "Sito web": "http://www.aeroporto.firenze.it/", "LAT": 43.809722, "LON": 11.203889 }, "geometry": { "type": "Point", "coordinates": [ 11.203889, 43.809722 ] } },
{ "type": "Feature", "properties": { "fid": 11, "Aeroporto": "GENOVA SESTRI", "Nome Commerciale": "\"Aeroporto di Genova \"\"Cristoforo Colombo\"\"\"", "Comune": "GENOVA", "Indirizzo": "Via Pionieri e Aviatori d'Italia, 1, 16154 Genova", "Codice IATA": "GOA", "Codice ICAO": "LIMJ", "Tipo Utilizzo": "CIVILE", "Interesse Nazionale": "SI", "TEN T CORE Network/COMPREHENSIVE Network": "CORE", "Certificato": "SI", "Gestore": "AEROPORTO DI GENOVA S.P.A.", "N. Certificato": "I-015/APT", "Scadenza": "2016-11-30", "Direzione/Ufficio operazioni ENAC": "NORD-OVEST", "Note certificato": "", "Sito web": "http://www.airport.genova.it/", "LAT": 44.414444, "LON": 8.838611 }, "geometry": { "type": "Point", "coordinates": [ 8.838611, 44.414444 ] } },
{ "type": "Feature", "properties": { "fid": 12, "Aeroporto": "LAMEZIA TERME", "Nome Commerciale": "Aeroporto Internazionale di Lamezia Terme", "Comune": "LAMEZIA TERME", "Indirizzo": "Via Aeroporto, 88046 Lamezia Terme (CZ)", "Codice IATA": "SUF", "Codice ICAO": "LICA", "Tipo Utilizzo": "CIVILE E MILITARE", "Interesse Nazionale": "STRATEGICO", "TEN T CORE Network/COMPREHENSIVE Network": "COMPREHENSIVE", "Certificato": "SI", "Gestore": "SA.CAL.", "N. Certificato": "I-016/APT", "Scadenza": "2016-11-30", "Direzione/Ufficio operazioni ENAC": "SUD", "Note certificato": "", "Sito web": "http://www.lameziaairport.it/", "LAT": 38.9, "LON": 16.233333 }, "geometry": { "type": "Point", "coordinates": [ 16.233333, 38.9 ] } },
{ "type": "Feature", "properties": { "fid": 13, "Aeroporto": "LAMPEDUSA", "Nome Commerciale": "Aeroporto di Lampedusa", "Comune": "LAMPEDUSA", "Indirizzo": "Contrada Cala Francese, 92010 Lampedusa E Linosa (AG)", "Codice IATA": "LMP", "Codice ICAO": "LICD", "Tipo Utilizzo": "CIVILE", "Interesse Nazionale": "SI", "TEN T CORE Network/COMPREHENSIVE Network": "COMPREHENSIVE", "Certificato": "SI", "Gestore": "ASTAEROSERVIZI", "N. Certificato": "I-047/APT", "Scadenza": "2017-12-23", "Direzione/Ufficio operazioni ENAC": "SUD", "Note certificato": "", "Sito web": "http://www.aeroportodilampedusa.com/", "LAT": 35.495833, "LON": 12.611111 }, "geometry": { "type": "Point", "coordinates": [ 12.611111, 35.495833 ] } },
{ "type": "Feature", "properties": { "fid": 14, "Aeroporto": "MILANO LINATE", "Nome Commerciale": "\"Aeroporto di Milano-Linate \"\"Enrico Forlanini\"\"\"", "Comune": "PESCHIERA BORROMEO", "Indirizzo": "Viale Enrico Forlanini, 20090 (MI)", "Codice IATA": "LIN", "Codice ICAO": "LIML", "Tipo Utilizzo": "CIVILE", "Interesse Nazionale": "SI", "TEN T CORE Network/COMPREHENSIVE Network": "CORE", "Certificato": "SI", "Gestore": "SEA", "N. Certificato": "I-002B/APT", "Scadenza": "2017-12-31", "Direzione/Ufficio operazioni ENAC": "NORD-OVEST", "Note certificato": "", "Sito web": "http://www.milanolinate-airport.com/it", "LAT": 45.449444, "LON": 9.278333 }, "geometry": { "type": "Point", "coordinates": [ 9.278333, 45.449444 ] } },
{ "type": "Feature", "properties": { "fid": 15, "Aeroporto": "MILANO MALPENSA", "Nome Commerciale": "Aeroporto di Milano-Malpensa", "Comune": "FERNO", "Indirizzo": "Aeroporto Milano Malpensa - 21010 Ferno (VA)", "Codice IATA": "MXP", "Codice ICAO": "LIMC", "Tipo Utilizzo": "CIVILE", "Interesse Nazionale": "STRATEGICO", "TEN T CORE Network/COMPREHENSIVE Network": "CORE", "Certificato": "SI", "Gestore": "SEA", "N. Certificato": "I-002/APT", "Scadenza": "2017-12-31", "Direzione/Ufficio operazioni ENAC": "NORD-OVEST", "Note certificato": "", "Sito web": "http://www.airportmalpensa.com/", "LAT": 45.63, "LON": 8.723056 }, "geometry": { "type": "Point", "coordinates": [ 8.723056, 45.63 ] } },
{ "type": "Feature", "properties": { "fid": 16, "Aeroporto": "NAPOLI", "Nome Commerciale": "\"Aeroporto di Napoli-Capodichino \"\"Ugo Niutta\"\"\"", "Comune": "NAPOLI", "Indirizzo": "Viale F. Ruffo di Calabria, 80144 Napoli", "Codice IATA": "NAP", "Codice ICAO": "LIRN", "Tipo Utilizzo": "CIVILE E MILITARE", "Interesse Nazionale": "STRATEGICO", "TEN T CORE Network/COMPREHENSIVE Network": "CORE", "Certificato": "SI", "Gestore": "GE.S.A.C.", "N. Certificato": "I-007/APT", "Scadenza": "2017-12-31", "Direzione/Ufficio operazioni ENAC": "SUD", "Note certificato": "", "Sito web": "http://www.aeroportodinapoli.it/", "LAT": 40.883333, "LON": 14.283333 }, "geometry": { "type": "Point", "coordinates": [ 14.283333, 40.883333 ] } },
{ "type": "Feature", "properties": { "fid": 17, "Aeroporto": "OLBIA", "Nome Commerciale": "\"Aeroporto di Olbia \"\"Costa Smeralda\"\"\"", "Comune": "OLBIA", "Indirizzo": "Aeroporto Costa Smeralda, 07026 Olbia (OT)", "Codice IATA": "OLB", "Codice ICAO": "LIEO", "Tipo Utilizzo": "CIVILE", "Interesse Nazionale": "SI", "TEN T CORE Network/COMPREHENSIVE Network": "COMPREHENSIVE", "Certificato": "SI", "Gestore": "GEASAR S.P.A.", "N. Certificato": "I-008/APT", "Scadenza": "2017-01-24", "Direzione/Ufficio operazioni ENAC": "CENTRO", "Note certificato": "", "Sito web": "http://www.geasar.it/", "LAT": 40.898611, "LON": 9.5175 }, "geometry": { "type": "Point", "coordinates": [ 9.5175, 40.898611 ] } },
{ "type": "Feature", "properties": { "fid": 18, "Aeroporto": "PALERMO", "Nome Commerciale": "\"Aeroporto Internazionale \"\"Falcone e Borsellino\"\"\"", "Comune": "CINISI", "Indirizzo": "LocalitÃ  Punta Raisi, 90145 Cinisi (PA)", "Codice IATA": "PMO", "Codice ICAO": "LICJ", "Tipo Utilizzo": "CIVILE", "Interesse Nazionale": "STRATEGICO", "TEN T CORE Network/COMPREHENSIVE Network": "CORE", "Certificato": "SI", "Gestore": "GES.A.P.", "N. Certificato": "I-006/APT", "Scadenza": "2017-12-31", "Direzione/Ufficio operazioni ENAC": "SUD", "Note certificato": "", "Sito web": "http://www.gesap.it/", "LAT": 38.181389, "LON": 13.099444 }, "geometry": { "type": "Point", "coordinates": [ 13.099444, 38.181389 ] } },
{ "type": "Feature", "properties": { "fid": 19, "Aeroporto": "PARMA", "Nome Commerciale": "\"Aeroporto di Parma \"\"Giuseppe Verdi\"\"\"", "Comune": "PARMA", "Indirizzo": "Via Licinio Ferretti, 50A, 43126 Parma (PR)", "Codice IATA": "PMF", "Codice ICAO": "LIMP", "Tipo Utilizzo": "CIVILE", "Interesse Nazionale": "SI", "TEN T CORE Network/COMPREHENSIVE Network": "NO", "Certificato": "SI", "Gestore": "S.O.G.E.A.P.", "N. Certificato": "I-033/APT", "Scadenza": "2017-12-31", "Direzione/Ufficio operazioni ENAC": "NORD-OVEST", "Note certificato": "", "Sito web": "http://www.parma-airport.it/", "LAT": 44.822222, "LON": 10.295278 }, "geometry": { "type": "Point", "coordinates": [ 10.295278, 44.822222 ] } },
{ "type": "Feature", "properties": { "fid": 20, "Aeroporto": "PESCARA", "Nome Commerciale": "Aeroporto Internazionale d'Abruzzo", "Comune": "PESCARA", "Indirizzo": "Via Tiburtina Km 229,100, 65131 Pescara (PE)", "Codice IATA": "PSR", "Codice ICAO": "LIBP", "Tipo Utilizzo": "CIVILE", "Interesse Nazionale": "SI", "TEN T CORE Network/COMPREHENSIVE Network": "COMPREHENSIVE", "Certificato": "SI", "Gestore": "S.A.G.A. S.P.A.", "N. Certificato": "I-023/APT", "Scadenza": "2017-05-30", "Direzione/Ufficio operazioni ENAC": "CENTRO", "Note certificato": "", "Sito web": "http://www.abruzzoairport.com", "LAT": 42.437222, "LON": 14.187222 }, "geometry": { "type": "Point", "coordinates": [ 14.187222, 42.437222 ] } },
{ "type": "Feature", "properties": { "fid": 21, "Aeroporto": "PISA", "Nome Commerciale": "\"Aeroporto Internazionale \"\"Galileo Galilei\"\"\"", "Comune": "PISA", "Indirizzo": "Piazzale D'ascanio, 1, 56121 Pisa (PI)", "Codice IATA": "PSA", "Codice ICAO": "LIRP", "Tipo Utilizzo": "CIVILE E MILITARE", "Interesse Nazionale": "STRATEGICO", "TEN T CORE Network/COMPREHENSIVE Network": "COMPREHENSIVE", "Certificato": "SI", "Gestore": "TOSCANA AEROPORTI SPA", "N. Certificato": "I-019/APT", "Scadenza": "2016-11-30", "Direzione/Ufficio operazioni ENAC": "CENTRO", "Note certificato": "", "Sito web": "http://www.pisa-airport.com/", "LAT": 43.682778, "LON": 10.395556 }, "geometry": { "type": "Point", "coordinates": [ 10.395556, 43.682778 ] } },
{ "type": "Feature", "properties": { "fid": 22, "Aeroporto": "REGGIO CALABRIA", "Nome Commerciale": "\"Aeroporto dello Stretto \"\"Tito Minniti\"\"\"", "Comune": "REGGIO CALABRIA", "Indirizzo": "Via Ravagnese, 11, 89131 Reggio Calabria (RC)", "Codice IATA": "REG", "Codice ICAO": "LICR", "Tipo Utilizzo": "CIVILE", "Interesse Nazionale": "SI", "TEN T CORE Network/COMPREHENSIVE Network": "COMPREHENSIVE", "Certificato": "SI", "Gestore": "SOGAS", "N. Certificato": "I-024/APT", "Scadenza": "2017-11-30", "Direzione/Ufficio operazioni ENAC": "SUD", "Note certificato": "", "Sito web": "http://www.aeroportodellostretto.it", "LAT": 38.071944, "LON": 15.653611 }, "geometry": { "type": "Point", "coordinates": [ 15.653611, 38.071944 ] } },
{ "type": "Feature", "properties": { "fid": 23, "Aeroporto": "RIMINI SAN MARINO", "Nome Commerciale": "\"Aeroporto Internazionale di Rimini - San Marino \"\"Federico Fellini\"\"\"", "Comune": "RIMINI", "Indirizzo": "Via Flaminia, 409, 47924 Miramare, Rimini (RN)", "Codice IATA": "RMI", "Codice ICAO": "LIPR", "Tipo Utilizzo": "CIVILE", "Interesse Nazionale": "SI", "TEN T CORE Network/COMPREHENSIVE Network": "NO", "Certificato": "SI", "Gestore": "AIRIMINUM 2014", "N. Certificato": "I-048/APT", "Scadenza": "2017-12-31", "Direzione/Ufficio operazioni ENAC": "NORD-EST", "Note certificato": "", "Sito web": "http://riminiairport.com", "LAT": 44.019444, "LON": 12.609444 }, "geometry": { "type": "Point", "coordinates": [ 12.609444, 44.019444 ] } },
{ "type": "Feature", "properties": { "fid": 24, "Aeroporto": "ROMA CIAMPINO", "Nome Commerciale": "\"Aeroporto Internazionale \"\"Giovan Battista Pastine\"\"\"", "Comune": "CIAMPINO", "Indirizzo": "Via Appia Nuova, 1651, 00040 Ciampino (RM)", "Codice IATA": "CIA", "Codice ICAO": "LIRA", "Tipo Utilizzo": "CIVILE E MILITARE", "Interesse Nazionale": "SI", "TEN T CORE Network/COMPREHENSIVE Network": "COMPREHENSIVE", "Certificato": "SI", "Gestore": "ADR S.P.A.", "N. Certificato": "I-001B/APT", "Scadenza": "2016-11-30", "Direzione/Ufficio operazioni ENAC": "CENTRO", "Note certificato": "", "Sito web": "https://www.adr.it/ciampino", "LAT": 41.799444, "LON": 12.597222 }, "geometry": { "type": "Point", "coordinates": [ 12.597222, 41.799444 ] } },
{ "type": "Feature", "properties": { "fid": 25, "Aeroporto": "ROMA FIUMICINO", "Nome Commerciale": "\"Aeroporto Internazionale \"\"Leonardo da Vinci\"\"\"", "Comune": "FIUMICINO", "Indirizzo": "Via dell'Aeroporto di Fiumicino 320 - 00054 Fiumicino (RM)", "Codice IATA": "FCO", "Codice ICAO": "LIRF", "Tipo Utilizzo": "CIVILE", "Interesse Nazionale": "STRATEGICO", "TEN T CORE Network/COMPREHENSIVE Network": "CORE", "Certificato": "SI", "Gestore": "ADR S.P.A.", "N. Certificato": "I-001/APT", "Scadenza": "2018-11-26", "Direzione/Ufficio operazioni ENAC": "CENTRO", "Note certificato": "", "Sito web": "https://www.adr.it/fiumicino", "LAT": 41.800278, "LON": 12.238889 }, "geometry": { "type": "Point", "coordinates": [ 12.238889, 41.800278 ] } },
{ "type": "Feature", "properties": { "fid": 26, "Aeroporto": "RONCHI DEI LEGIONARI", "Nome Commerciale": "\"Aeroporto di Trieste-Ronchi dei Legionari \"\"Pietro Savorgnan di BrazzÃ \"\"\\nAeroporto del Friuli Venezia Giulia\"", "Comune": "RONCHI DEI LEGIONARI", "Indirizzo": "Via Aquileia, 46, 34077 Ronchi dei Legionari (GO)", "Codice IATA": "TRS", "Codice ICAO": "LIPQ", "Tipo Utilizzo": "CIVILE", "Interesse Nazionale": "SI", "TEN T CORE Network/COMPREHENSIVE Network": "COMPREHENSIVE", "Certificato": "SI", "Gestore": "AEROP. FRIULI VENEZIA GIULIA", "N. Certificato": "I-018/APT", "Scadenza": "2016-11-30", "Direzione/Ufficio operazioni ENAC": "NORD-EST", "Note certificato": "", "Sito web": "http://www.aeroporto.fvg.it/", "LAT": 45.8275, "LON": 13.472222 }, "geometry": { "type": "Point", "coordinates": [ 13.472222, 45.8275 ] } },
{ "type": "Feature", "properties": { "fid": 27, "Aeroporto": "TARANTO GROTTAGLIE", "Nome Commerciale": "\"Aeroporto di Grottaglie \"\"Marcello Arlotta\"\"\"", "Comune": "GROTTAGLIE", "Indirizzo": "SP 83, 74023 Grottaglie (TA)", "Codice IATA": "TAR", "Codice ICAO": "LIBG", "Tipo Utilizzo": "CIVILE CON PRESENZA MILITARE SULL'OMONIMO SEDIME ADIACENTE", "Interesse Nazionale": "SI", "TEN T CORE Network/COMPREHENSIVE Network": "NO", "Certificato": "SI", "Gestore": "SOC. AEROPORTI DI PUGLIA", "N. Certificato": "I-029/APT", "Scadenza": "2017-12-31", "Direzione/Ufficio operazioni ENAC": "SUD", "Note certificato": "", "Sito web": "http://www.aeroportidipuglia.it/", "LAT": 40.516172, "LON": 17.404786 }, "geometry": { "type": "Point", "coordinates": [ 17.404786, 40.516172 ] } },
{ "type": "Feature", "properties": { "fid": 28, "Aeroporto": "TORINO CASELLE", "Nome Commerciale": "\"Aeroporto Internazionale di Torino-Caselle \"\"Sandro Pertini\"\"\"", "Comune": "TORINO", "Indirizzo": "Strada Aeroporto, 12, 10072 Caselle Torinese (TO)", "Codice IATA": "TRN", "Codice ICAO": "LIMF", "Tipo Utilizzo": "CIVILE", "Interesse Nazionale": "SI", "TEN T CORE Network/COMPREHENSIVE Network": "CORE", "Certificato": "SI", "Gestore": "S.A.G.A.T.", "N. Certificato": "I-011/APT", "Scadenza": "2016-11-30", "Direzione/Ufficio operazioni ENAC": "TORINO", "Note certificato": "", "Sito web": "http://www.aeroportoditorino.it", "LAT": 45.2025, "LON": 7.649444 }, "geometry": { "type": "Point", "coordinates": [ 7.649444, 45.2025 ] } },
{ "type": "Feature", "properties": { "fid": 29, "Aeroporto": "TRAPANI BIRGI", "Nome Commerciale": "\"Aeroporto di Trapani-Birgi \"\"Vincenzo Florio\"\"\\nAeroporto militare \"\"Livio Bassi\"\"\"", "Comune": "TRAPANI/MARSALA", "Indirizzo": "91020 Birgi, Trapani (TP)", "Codice IATA": "TPS", "Codice ICAO": "LICT", "Tipo Utilizzo": "CIVILE E MILITARE", "Interesse Nazionale": "SI", "TEN T CORE Network/COMPREHENSIVE Network": "COMPREHENSIVE", "Certificato": "SI", "Gestore": "AIRGEST", "N. Certificato": "I-039/APT", "Scadenza": "2017-12-29", "Direzione/Ufficio operazioni ENAC": "SUD", "Note certificato": "", "Sito web": "http://www.airgest.it/", "LAT": 37.911944, "LON": 12.493333 }, "geometry": { "type": "Point", "coordinates": [ 12.493333, 37.911944 ] } },
{ "type": "Feature", "properties": { "fid": 30, "Aeroporto": "VENEZIA", "Nome Commerciale": "\"Aeroporto di Venezia-Tessera \"\"Marco Polo\"\"\"", "Comune": "VENEZIA", "Indirizzo": "Viale G. Galilei, 30/1 - 30173 Tessera-Venezia (VE)", "Codice IATA": "VCE", "Codice ICAO": "LIPZ", "Tipo Utilizzo": "CIVILE", "Interesse Nazionale": "STRATEGICO", "TEN T CORE Network/COMPREHENSIVE Network": "CORE", "Certificato": "SI", "Gestore": "SAVE", "N. Certificato": "I-003/APT", "Scadenza": "2019-05-30", "Direzione/Ufficio operazioni ENAC": "NORD-EST", "Note certificato": "", "Sito web": "http://www.veniceairport.it/", "LAT": 45.505278, "LON": 12.351944 }, "geometry": { "type": "Point", "coordinates": [ 12.351944, 45.505278 ] } },
{ "type": "Feature", "properties": { "fid": 31, "Aeroporto": "VERONA VILLAFRANCA", "Nome Commerciale": "\"Aeroporto di Verona-Villafranca \"\"Valerio Catullo\"\"\"", "Comune": "VILLAFRANCA DI VERONA/CASELLE", "Indirizzo": "37066 Caselle (VR)", "Codice IATA": "VRN", "Codice ICAO": "LIPX", "Tipo Utilizzo": "CIVILE E MILITARE", "Interesse Nazionale": "SI", "TEN T CORE Network/COMPREHENSIVE Network": "COMPREHENSIVE", "Certificato": "SI", "Gestore": "AEROP. VALERIO CATULLO", "N. Certificato": "I-017/APT", "Scadenza": "2016-11-30", "Direzione/Ufficio operazioni ENAC": "NORD-EST", "Note certificato": "", "Sito web": "http://www.aeroportoverona.it/", "LAT": 45.396389, "LON": 10.888056 }, "geometry": { "type": "Point", "coordinates": [ 10.888056, 45.396389 ] } }
]
}
